[{"OBJECT_NAME":"STARLINK-32415","OBJECT_ID":"2024-202S","EPOCH":"2026-03-09T12:59:44.258208","MEAN_MOTION":15.27575199,"ECCENTRICITY":0.00017932,"INCLINATION":43.0016,"RA_OF_ASC_NODE":238.9403,"ARG_OF_PERICENTER":270.3936,"MEAN_ANOMALY":89.671,"EPHEMERIS_TYPE":0,"CLASSIFICATION_TYPE":"U","NORAD_CAT_ID":61861,"ELEMENT_SET_NO":999,"REV_AT_EPOCH":7530,"BSTAR":2.703256e-5,"MEAN_MOTION_DOT":4.82e-6,"MEAN_MOTION_DDOT":0},{"OBJECT_NAME":"GEOSCAN 2 (RS92S2)","OBJECT_ID":"2025-155Q","EPOCH":"2026-03-09T23:01:48.939744","MEAN_MOTION":15.28709337,"ECCENTRICITY":0.00085277,"INCLINATION":97.4463,"RA_OF_ASC_NODE":37.5259,"ARG_OF_PERICENTER":140.9505,"MEAN_ANOMALY":219.2352,"EPHEMERIS_TYPE":0,"CLASSIFICATION_TYPE":"U","NORAD_CAT_ID":64890,"ELEMENT_SET_NO":999,"REV_AT_EPOCH":6561,"BSTAR":0.00051551761,"MEAN_MOTION_DOT":0.00014341,"MEAN_MOTION_DDOT":0}]
